GLOBALSTAR M067         
1 32263U 07048A   24262.75747962 -.00000046  00000+0  38144-3 0  9991
2 32263  51.9710 110.1480 0001624 101.2719 338.1325 12.40655160775790
GLOBALSTAR M070         
1 32264U 07048B   24263.10188340 -.00000091  00000+0  70642-4 0  9991
2 32264  51.9732 234.3293 0000143  84.7161 354.2975 12.62300475780412
GLOBALSTAR M066         
1 32265U 07048C   24262.87536786 -.00000069  00000+0  20410-3 0  9998
2 32265  51.9662  98.9337 0001282  15.2662  89.0888 12.53545991781633
GLOBALSTAR M068         
1 32266U 07048D   24262.59269813 -.00000110  00000+0 -33303-4 0  9996
2 32266  51.9893  50.1511 0000289 197.3854 243.0637 12.62800381783245
GLOBALSTAR M079         
1 37188U 10054A   24262.96242906 -.00000102  00000+0  11253-4 0  9990
2 37188  52.0021 245.4395 0000620  61.2012 317.2620 12.62264213642205
GLOBALSTAR M074         
1 37189U 10054B   24262.90877660 -.00000113  00000+0 -48877-4 0  9991
2 37189  51.9998 244.9634 0000393  82.0712 294.7840 12.62289176642806
GLOBALSTAR M076         
1 37190U 10054C   24263.10756462 -.00000115  00000+0 -61182-4 0  9998
2 37190  52.0013 244.5115 0000720  91.4454 344.7361 12.62270099642908
GLOBALSTAR M077         
1 37191U 10054D   24263.18688567 -.00000089  00000+0  80289-4 0  9995
2 37191  52.0057 201.0449 0000515  64.2100  74.2919 12.62263816643660
